NAVSTAR 84 (USA 545)    
1 64202U 25116A   25321.68393000 -.00000098  00000+0  00000+0 0  9997
2 64202  55.0876  39.6531 0004557 302.2464  56.7159  2.00560038  3624
COSMOS 2596 [GLONASS-K1]
1 65590U 25206B   25321.36550650 -.00000049  00000+0  00000+0 0  9995
2 65590  64.7580 322.3562 0013864 303.6133  68.0493  2.13100752  1395
