[
    {
        "OBJECT_NAME": "GPS BIII-8  (PRN 21)",
        "OBJECT_ID": "2025-116A",
        "EPOCH": "2025-11-17T16:24:51.552000",
        "MEAN_MOTION": 2.00560038,
        "ECCENTRICITY": 0.0004557,
        "INCLINATION": 55.0876,
        "RA_OF_ASC_NODE": 39.6531,
        "ARG_OF_PERICENTER": 302.2464,
        "MEAN_ANOMALY": 56.7159,
        "EPHEMERIS_TYPE": 0,
        "CLASSIFICATION_TYPE": "U",
        "NORAD_CAT_ID": 64202,
        "ELEMENT_SET_NO": 999,
        "REV_AT_EPOCH": 362,
        "BSTAR": 0,
        "MEAN_MOTION_DOT": -9.8e-7,
        "MEAN_MOTION_DDOT": 0
    },
    {
        "OBJECT_NAME": "COSMOS 2596 (708K)",
        "OBJECT_ID": "2025-206B",
        "EPOCH": "2025-11-17T08:46:19.761600",
        "MEAN_MOTION": 2.13100752,
        "ECCENTRICITY": 0.0013864,
        "INCLINATION": 64.758,
        "RA_OF_ASC_NODE": 322.3562,
        "ARG_OF_PERICENTER": 303.6133,
        "MEAN_ANOMALY": 68.0493,
        "EPHEMERIS_TYPE": 0,
        "CLASSIFICATION_TYPE": "U",
        "NORAD_CAT_ID": 65590,
        "ELEMENT_SET_NO": 999,
        "REV_AT_EPOCH": 139,
        "BSTAR": 0,
        "MEAN_MOTION_DOT": -4.9e-7,
        "MEAN_MOTION_DDOT": 0
    }
]